{"fetched_at":"2026-03-29T16:36:15Z","count":15609,"tles":[{"name":"STARLINK-32714","line1":"1 62499U 25003N   26087.62674234  .00037631  00000+0  13689-2 0  9995","line2":"2 62499  42.9993 182.3793 0001302 269.9256  90.1447 15.27607795 69566","category":"Starlink"}]}