{
  "norad_id": 62499,
  "name": "STARLINK-32714",
  "history": [
    {
      "epoch": "2026-03-28T15:02:30.538176",
      "apogee_km": 483.8591846659665,
      "perigee_km": 482.07255347885985,
      "latitude_deg": 31.949522473206997,
      "longitude_deg": 130.0672646400053,
      "semi_major_axis_km": 6861.102869072412,
      "eccentricity": 0.0001302,
      "inclination_deg": 42.9993,
      "raan_deg": 182.3793,
      "arg_perigee_deg": 269.9256,
      "mean_anomaly_deg": 90.1447,
      "mean_motion_rev_day": 15.27607795
    }
  ]
}